SL-4 R/B                
1 39679U 14021B   26036.28328122  .00017747  00000+0  40165-3 0  9991
2 39679  51.6065 135.2401 0099066 344.8941  14.9089 15.38153120651280
ALOS-2                  
1 39766U 14029A   26036.25511683  .00000710  00000+0  10187-3 0  9992
2 39766  97.9220 135.3193 0001454 103.0058 257.1316 14.79484908632075
YAOGAN-29               
1 41038U 15069A   26036.33995718  .00000306  00000+0  44411-4 0  9995
2 41038  98.0172  64.6778 0002867  89.7296 270.4245 14.82956441551084
ASTRO-H (HITOMI)        
1 41337U 16012A   26036.17505597  .00004460  00000+0  26367-3 0  9994
2 41337  30.9979 206.3331 0009885   5.6410 354.4338 15.09763790547318
HXMT (HUIYAN)           
1 42758U 17034A   26036.12481113  .00008599  00000+0  43318-3 0  9991
2 42758  43.0131 197.6590 0031269  26.4342 333.8093 15.17028309477596
CZ-2C R/B               
1 43521U 18054D   26035.44082001  .00287748  32000-4  76887-3 0  9992
2 43521  35.1296 172.5170 0013498 340.0546  19.9664 15.93270476423562
SAOCOM 1A               
1 43641U 18076A   26036.28790458  .00000999  00000+0  13200-3 0  9995
2 43641  97.8861 224.9201 0001435  85.6030 274.5348 14.82155066396564
H-2A R/B                
1 43682U 18084L   26035.60804187  .00022452  00000+0  56014-3 0  9997
2 43682  98.8754 245.9623 0026262 136.6942 223.6369 15.39870441400687
SAOCOM 1B               
1 46265U 20059A   26036.25164880  .00000013  00000+0  82252-5 0  9997
2 46265  97.8858 223.9828 0001322  83.9257 276.2107 14.82157809293943
CSS (TIANHE)            
1 48274U 21035A   26036.19244547  .00018681  00000+0  23497-3 0  9990
2 48274  41.4676  45.6780 0005707   3.1658 356.9216 15.59205280272535
COSMOS 2550             
1 48865U 21056A   26036.10916548  .00003451  00000+0  11066-3 0  9995
2 48865  67.1448 139.4818 0008330 270.0704  89.9495 15.33832820258465
CZ-2C R/B               
1 52794U 22058K   26036.27739015  .00041370  00000+0  65457-3 0  9999
2 52794  50.1891 124.7265 0042290  63.4451 297.0844 15.51955687205092
