CCSDS_OMM_VERS = 2.0
CREATION_DATE  = 
ORIGINATOR     = 

OBJECT_NAME    = SL-4 R/B
OBJECT_ID      = 2014-021B
CENTER_NAME    = EARTH
REF_FRAME      = TEME
TIME_SYSTEM    = UTC
MEAN_ELEMENT_THEORY = SGP/SGP4

EPOCH          = 2026-02-05T06:47:55.497408
MEAN_MOTION    = 15.38153120
ECCENTRICITY   = .00990662
INCLINATION    = 51.6065
RA_OF_ASC_NODE = 135.2401
ARG_OF_PERICENTER = 344.8941
MEAN_ANOMALY   = 14.9089

EPHEMERIS_TYPE = 0
CLASSIFICATION_TYPE = U
NORAD_CAT_ID   = 39679
ELEMENT_SET_NO = 999
REV_AT_EPOCH   = 65128
BSTAR          = .40164718E-3
MEAN_MOTION_DOT = .17747E-3
MEAN_MOTION_DDOT = 0

CCSDS_OMM_VERS = 2.0
CREATION_DATE  = 
ORIGINATOR     = 

OBJECT_NAME    = ALOS-2
OBJECT_ID      = 2014-029A
CENTER_NAME    = EARTH
REF_FRAME      = TEME
TIME_SYSTEM    = UTC
MEAN_ELEMENT_THEORY = SGP/SGP4

EPOCH          = 2026-02-05T06:07:22.094112
MEAN_MOTION    = 14.79484908
ECCENTRICITY   = .00014547
INCLINATION    = 97.9220
RA_OF_ASC_NODE = 135.3193
ARG_OF_PERICENTER = 103.0058
MEAN_ANOMALY   = 257.1316

EPHEMERIS_TYPE = 0
CLASSIFICATION_TYPE = U
NORAD_CAT_ID   = 39766
ELEMENT_SET_NO = 999
REV_AT_EPOCH   = 63207
BSTAR          = .10187487E-3
MEAN_MOTION_DOT = .71E-5
MEAN_MOTION_DDOT = 0

CCSDS_OMM_VERS = 2.0
CREATION_DATE  = 
ORIGINATOR     = 

OBJECT_NAME    = YAOGAN-29
OBJECT_ID      = 2015-069A
CENTER_NAME    = EARTH
REF_FRAME      = TEME
TIME_SYSTEM    = UTC
MEAN_ELEMENT_THEORY = SGP/SGP4

EPOCH          = 2026-02-05T08:09:32.300352
MEAN_MOTION    = 14.82956441
ECCENTRICITY   = .00028672
INCLINATION    = 98.0172
RA_OF_ASC_NODE = 64.6778
ARG_OF_PERICENTER = 89.7296
MEAN_ANOMALY   = 270.4245

EPHEMERIS_TYPE = 0
CLASSIFICATION_TYPE = U
NORAD_CAT_ID   = 41038
ELEMENT_SET_NO = 999
REV_AT_EPOCH   = 55108
BSTAR          = .44411129E-4
MEAN_MOTION_DOT = .306E-5
MEAN_MOTION_DDOT = 0

CCSDS_OMM_VERS = 2.0
CREATION_DATE  = 
ORIGINATOR     = 

OBJECT_NAME    = ASTRO-H (HITOMI)
OBJECT_ID      = 2016-012A
CENTER_NAME    = EARTH
REF_FRAME      = TEME
TIME_SYSTEM    = UTC
MEAN_ELEMENT_THEORY = SGP/SGP4

EPOCH          = 2026-02-05T04:12:04.835808
MEAN_MOTION    = 15.09763790
ECCENTRICITY   = .00098855
INCLINATION    = 30.9979
RA_OF_ASC_NODE = 206.3331
ARG_OF_PERICENTER = 5.6410
MEAN_ANOMALY   = 354.4338

EPHEMERIS_TYPE = 0
CLASSIFICATION_TYPE = U
NORAD_CAT_ID   = 41337
ELEMENT_SET_NO = 999
REV_AT_EPOCH   = 54731
BSTAR          = .26367131E-3
MEAN_MOTION_DOT = .446E-4
MEAN_MOTION_DDOT = 0

CCSDS_OMM_VERS = 2.0
CREATION_DATE  = 
ORIGINATOR     = 

OBJECT_NAME    = HXMT (HUIYAN)
OBJECT_ID      = 2017-034A
CENTER_NAME    = EARTH
REF_FRAME      = TEME
TIME_SYSTEM    = UTC
MEAN_ELEMENT_THEORY = SGP/SGP4

EPOCH          = 2026-02-05T02:59:43.681632
MEAN_MOTION    = 15.17028309
ECCENTRICITY   = .00312694
INCLINATION    = 43.0131
RA_OF_ASC_NODE = 197.6590
ARG_OF_PERICENTER = 26.4342
MEAN_ANOMALY   = 333.8093

EPHEMERIS_TYPE = 0
CLASSIFICATION_TYPE = U
NORAD_CAT_ID   = 42758
ELEMENT_SET_NO = 999
REV_AT_EPOCH   = 47759
BSTAR          = .43317906E-3
MEAN_MOTION_DOT = .8599E-4
MEAN_MOTION_DDOT = 0

CCSDS_OMM_VERS = 2.0
CREATION_DATE  = 
ORIGINATOR     = 

OBJECT_NAME    = CZ-2C R/B
OBJECT_ID      = 2018-054D
CENTER_NAME    = EARTH
REF_FRAME      = TEME
TIME_SYSTEM    = UTC
MEAN_ELEMENT_THEORY = SGP/SGP4

EPOCH          = 2026-02-04T10:34:46.848864
MEAN_MOTION    = 15.93270476
ECCENTRICITY   = .00134982
INCLINATION    = 35.1296
RA_OF_ASC_NODE = 172.5170
ARG_OF_PERICENTER = 340.0546
MEAN_ANOMALY   = 19.9664

EPHEMERIS_TYPE = 0
CLASSIFICATION_TYPE = U
NORAD_CAT_ID   = 43521
ELEMENT_SET_NO = 999
REV_AT_EPOCH   = 42356
BSTAR          = .76886966E-3
MEAN_MOTION_DOT = .287748E-2
MEAN_MOTION_DDOT = .32000354E-4

CCSDS_OMM_VERS = 2.0
CREATION_DATE  = 
ORIGINATOR     = 

OBJECT_NAME    = SAOCOM 1A
OBJECT_ID      = 2018-076A
CENTER_NAME    = EARTH
REF_FRAME      = TEME
TIME_SYSTEM    = UTC
MEAN_ELEMENT_THEORY = SGP/SGP4

EPOCH          = 2026-02-05T06:54:34.955712
MEAN_MOTION    = 14.82155066
ECCENTRICITY   = .00014355
INCLINATION    = 97.8861
RA_OF_ASC_NODE = 224.9201
ARG_OF_PERICENTER = 85.6030
MEAN_ANOMALY   = 274.5348

EPHEMERIS_TYPE = 0
CLASSIFICATION_TYPE = U
NORAD_CAT_ID   = 43641
ELEMENT_SET_NO = 999
REV_AT_EPOCH   = 39656
BSTAR          = .13200105E-3
MEAN_MOTION_DOT = .999E-5
MEAN_MOTION_DDOT = 0

CCSDS_OMM_VERS = 2.0
CREATION_DATE  = 
ORIGINATOR     = 

OBJECT_NAME    = H-2A R/B
OBJECT_ID      = 2018-084L
CENTER_NAME    = EARTH
REF_FRAME      = TEME
TIME_SYSTEM    = UTC
MEAN_ELEMENT_THEORY = SGP/SGP4

EPOCH          = 2026-02-04T14:35:34.817568
MEAN_MOTION    = 15.39870441
ECCENTRICITY   = .00262624
INCLINATION    = 98.8754
RA_OF_ASC_NODE = 245.9623
ARG_OF_PERICENTER = 136.6942
MEAN_ANOMALY   = 223.6369

EPHEMERIS_TYPE = 0
CLASSIFICATION_TYPE = U
NORAD_CAT_ID   = 43682
ELEMENT_SET_NO = 999
REV_AT_EPOCH   = 40068
BSTAR          = .56013915E-3
MEAN_MOTION_DOT = .22452E-3
MEAN_MOTION_DDOT = 0

CCSDS_OMM_VERS = 2.0
CREATION_DATE  = 
ORIGINATOR     = 

OBJECT_NAME    = SAOCOM 1B
OBJECT_ID      = 2020-059A
CENTER_NAME    = EARTH
REF_FRAME      = TEME
TIME_SYSTEM    = UTC
MEAN_ELEMENT_THEORY = SGP/SGP4

EPOCH          = 2026-02-05T06:02:22.456320
MEAN_MOTION    = 14.82157809
ECCENTRICITY   = .00013229
INCLINATION    = 97.8858
RA_OF_ASC_NODE = 223.9828
ARG_OF_PERICENTER = 83.9257
MEAN_ANOMALY   = 276.2107

EPHEMERIS_TYPE = 0
CLASSIFICATION_TYPE = U
NORAD_CAT_ID   = 46265
ELEMENT_SET_NO = 999
REV_AT_EPOCH   = 29394
BSTAR          = .8225151E-5
MEAN_MOTION_DOT = .13E-6
MEAN_MOTION_DDOT = 0

CCSDS_OMM_VERS = 2.0
CREATION_DATE  = 
ORIGINATOR     = 

OBJECT_NAME    = CSS (TIANHE)
OBJECT_ID      = 2021-035A
CENTER_NAME    = EARTH
REF_FRAME      = TEME
TIME_SYSTEM    = UTC
MEAN_ELEMENT_THEORY = SGP/SGP4

EPOCH          = 2026-02-05T04:37:07.288608
MEAN_MOTION    = 15.59205280
ECCENTRICITY   = .00057074
INCLINATION    = 41.4676
RA_OF_ASC_NODE = 45.6780
ARG_OF_PERICENTER = 3.1658
MEAN_ANOMALY   = 356.9216

EPHEMERIS_TYPE = 0
CLASSIFICATION_TYPE = U
NORAD_CAT_ID   = 48274
ELEMENT_SET_NO = 999
REV_AT_EPOCH   = 27253
BSTAR          = .23497078E-3
MEAN_MOTION_DOT = .18681E-3
MEAN_MOTION_DDOT = 0

CCSDS_OMM_VERS = 2.0
CREATION_DATE  = 
ORIGINATOR     = 

OBJECT_NAME    = COSMOS 2550
OBJECT_ID      = 2021-056A
CENTER_NAME    = EARTH
REF_FRAME      = TEME
TIME_SYSTEM    = UTC
MEAN_ELEMENT_THEORY = SGP/SGP4

EPOCH          = 2026-02-05T02:37:11.897472
MEAN_MOTION    = 15.33832820
ECCENTRICITY   = .00083301
INCLINATION    = 67.1448
RA_OF_ASC_NODE = 139.4818
ARG_OF_PERICENTER = 270.0704
MEAN_ANOMALY   = 89.9495

EPHEMERIS_TYPE = 0
CLASSIFICATION_TYPE = U
NORAD_CAT_ID   = 48865
ELEMENT_SET_NO = 999
REV_AT_EPOCH   = 25846
BSTAR          = .1106592E-3
MEAN_MOTION_DOT = .3451E-4
MEAN_MOTION_DDOT = 0

CCSDS_OMM_VERS = 2.0
CREATION_DATE  = 
ORIGINATOR     = 

OBJECT_NAME    = CZ-2C R/B
OBJECT_ID      = 2022-058K
CENTER_NAME    = EARTH
REF_FRAME      = TEME
TIME_SYSTEM    = UTC
MEAN_ELEMENT_THEORY = SGP/SGP4

EPOCH          = 2026-02-05T06:39:26.508960
MEAN_MOTION    = 15.51955687
ECCENTRICITY   = .00422902
INCLINATION    = 50.1891
RA_OF_ASC_NODE = 124.7265
ARG_OF_PERICENTER = 63.4451
MEAN_ANOMALY   = 297.0844

EPHEMERIS_TYPE = 0
CLASSIFICATION_TYPE = U
NORAD_CAT_ID   = 52794
ELEMENT_SET_NO = 999
REV_AT_EPOCH   = 20509
BSTAR          = .65457346E-3
MEAN_MOTION_DOT = .4137E-3
MEAN_MOTION_DDOT = 0

